OBJECT_NAME,OBJECT_ID,EPOCH,MEAN_MOTION,ECCENTRICITY,INCLINATION,RA_OF_ASC_NODE,ARG_OF_PERICENTER,MEAN_ANOMALY,EPHEMERIS_TYPE,CLASSIFICATION_TYPE,NORAD_CAT_ID,ELEMENT_SET_NO,REV_AT_EPOCH,BSTAR,MEAN_MOTION_DOT,MEAN_MOTION_DDOT
HAWK-6B,2023-011A,2026-07-11T01:13:42.441024,15.23131238,.0003524,40.4969,212.8596,219.2078,140.8477,0,U,55324,999,19148,.12257E-3,.2759E-4,0
HAWK-6C,2023-011C,2026-07-11T02:47:13.478208,15.23132905,.0004051,40.4958,209.3159,209.3679,150.6903,0,U,55326,999,19150,.12363E-3,.2785E-4,0
HAWK-6A,2023-011D,2026-07-11T10:39:21.606912,15.23133850,.0003622,40.4966,209.0301,209.0672,150.9936,0,U,55327,999,19155,.11891E-3,.2671E-4,0
HAWK-7A,2023-054P,2026-07-11T03:39:21.921120,15.27605934,.000184,97.2674,78.8807,352.8969,7.2244,0,U,56191,999,18068,.13057E-3,.3452E-4,0
HAWK-7B,2023-054R,2026-07-11T11:30:53.385984,15.27605259,.0001726,97.2703,77.4726,23.6543,336.4775,0,U,56193,999,18073,.11385E-3,.3E-4,0
HAWK-7C,2023-054Y,2026-07-10T02:29:52.463616,15.27600583,.00014906,97.2679,76.8926,12.3347,347.7929,0,U,56200,999,18052,.15018629E-3,.398E-4,0
